[{"OBJECT_NAME":"STARLINK-31201","OBJECT_ID":"2024-019T","EPOCH":"2026-03-09T12:52:07.114080","MEAN_MOTION":15.27575777,"ECCENTRICITY":9.156e-5,"INCLINATION":42.9976,"RA_OF_ASC_NODE":249.384,"ARG_OF_PERICENTER":277.148,"MEAN_ANOMALY":82.9267,"EPHEMERIS_TYPE":0,"CLASSIFICATION_TYPE":"U","NORAD_CAT_ID":58870,"ELEMENT_SET_NO":999,"REV_AT_EPOCH":11904,"BSTAR":-3.522699e-6,"MEAN_MOTION_DOT":-3.59e-6,"MEAN_MOTION_DDOT":0},{"OBJECT_NAME":"FLOCK 4G-11","OBJECT_ID":"2025-009W","EPOCH":"2026-03-09T10:57:03.681504","MEAN_MOTION":15.27220677,"ECCENTRICITY":0.00016118,"INCLINATION":97.3964,"RA_OF_ASC_NODE":150.6183,"ARG_OF_PERICENTER":333.5407,"MEAN_ANOMALY":26.575,"EPHEMERIS_TYPE":0,"CLASSIFICATION_TYPE":"U","NORAD_CAT_ID":62629,"ELEMENT_SET_NO":999,"REV_AT_EPOCH":6368,"BSTAR":0.00047740378,"MEAN_MOTION_DOT":0.00012672,"MEAN_MOTION_DDOT":0}]
