STARLINK-31201          
1 58870U 24019T   26068.53619345 -.00000359  00000+0 -35227-5 0  9994
2 58870  42.9976 249.3840 0000915 277.1480  82.9267 15.27575777119043
FLOCK 4G-11             
1 62629U 25009W   26068.45629261  .00012672  00000+0  47740-3 0  9990
2 62629  97.3964 150.6183 0001611 333.5407  26.5750 15.27220677 63680
